{
  "norad_id": 54188,
  "name": "STARLINK-5238",
  "history": [
    {
      "epoch": "2026-03-28T19:40:41.976192",
      "apogee_km": 540.7181190701231,
      "perigee_km": 538.8796084349724,
      "latitude_deg": 47.34557174005808,
      "longitude_deg": 37.51330688013695,
      "semi_major_axis_km": 6917.935863752547,
      "eccentricity": 0.00013288,
      "inclination_deg": 53.2184,
      "raan_deg": 268.4026,
      "arg_perigee_deg": 93.6942,
      "mean_anomaly_deg": 266.4202,
      "mean_motion_rev_day": 15.08821851
    }
  ]
}