{"fetched_at":"2026-03-29T16:36:15Z","count":15609,"tles":[{"name":"STARLINK-5238","line1":"1 54188U 22141AH  26087.81993028 -.00001743  00000+0 -91508-4 0  9992","line2":"2 54188  53.2184 268.4026 0001328  93.6942 266.4202 15.08821851188880","category":"Starlink"}]}